STARLINK-30397          
1 57771U 23134A   26068.35850402 -.00005090  00000+0 -17551-3 0  9996
2 57771  42.9993 196.5752 0000740 162.6936 197.3941 15.27596688139457
TEVEL2-9                
1 63237U 25052AD  26068.70229538  .00018694  00000+0  67240-3 0  9992
2 63237  97.4057 324.3929 0007990 124.2475 235.9522 15.28633834 54816
